<?xml version='1.0' encoding='UTF-8'?><gpx creator="YAMAP - https://yamap.com" xsi:schemaLocation="http://www.topografix.com/GPX/1/1 http://www.topografix.com/GPX/1/1/gpx.xsd" version="1.1" xmlns="http://www.topografix.com/GPX/1/1" xmlns:xsi="http://www.w3.org/2001/XMLSchema-instance"><metadata><bounds maxlat="35.4541438" maxlon="139.1685704" minlat="35.4048878" minlon="139.1609196"/></metadata><trk><name>堀山・花立ノ頭・塔ノ岳</name><number>1</number><trkseg><trkpt lat="35.4048878" lon="139.1685704"><ele>288.11</ele><time>2025-11-29T20:19:10Z</time></trkpt><trkpt lat="35.404963" lon="139.168329"><ele>288.775</ele><time>2025-11-29T20:19:29Z</time></trkpt><trkpt lat="35.4051553" lon="139.1682949"><ele>289.40333333333336</ele><time>2025-11-29T20:19:41Z</time></trkpt><trkpt lat="35.4053629" lon="139.1683018"><ele>290.74</ele><time>2025-11-29T20:19:50Z</time></trkpt><trkpt lat="35.4055457" lon="139.1682028"><ele>292.05</ele><time>2025-11-29T20:20:01Z</time></trkpt><trkpt lat="35.4057426" lon="139.1680995"><ele>292.9533333333333</ele><time>2025-11-29T20:20:16Z</time></trkpt><trkpt lat="35.4059066" lon="139.1679209"><ele>293.0233333333333</ele><time>2025-11-29T20:20:30Z</time></trkpt><trkpt lat="35.4059887" lon="139.1676899"><ele>292.4433333333333</ele><time>2025-11-29T20:20:45Z</time></trkpt><trkpt lat="35.40605" lon="139.1674362"><ele>292.3</ele><time>2025-11-29T20:21:00Z</time></trkpt><trkpt lat="35.4060536" lon="139.1671675"><ele>293.88333333333327</ele><time>2025-11-29T20:21:15Z</time></trkpt><trkpt lat="35.4059746" lon="139.1669242"><ele>297.01</ele><time>2025-11-29T20:21:29Z</time></trkpt><trkpt lat="35.4058522" lon="139.1667298"><ele>300.4733333333333</ele><time>2025-11-29T20:21:41Z</time></trkpt><trkpt lat="35.4057602" lon="139.166482"><ele>302.96999999999997</ele><time>2025-11-29T20:21:56Z</time></trkpt><trkpt lat="35.4058052" lon="139.1662504"><ele>305.1333333333333</ele><time>2025-11-29T20:22:11Z</time></trkpt><trkpt lat="35.4058907" lon="139.1660265"><ele>307.74666666666667</ele><time>2025-11-29T20:22:26Z</time></trkpt><trkpt lat="35.4060625" lon="139.1658903"><ele>311.35333333333335</ele><time>2025-11-29T20:22:44Z</time></trkpt><trkpt lat="35.4062536" lon="139.165839"><ele>315.6033333333333</ele><time>2025-11-29T20:23:01Z</time></trkpt><trkpt lat="35.4064421" lon="139.1658032"><ele>318.55</ele><time>2025-11-29T20:23:16Z</time></trkpt><trkpt lat="35.4066188" lon="139.1656736"><ele>320.52666666666664</ele><time>2025-11-29T20:23:31Z</time></trkpt><trkpt lat="35.4067742" lon="139.1655187"><ele>321.4866666666666</ele><time>2025-11-29T20:23:46Z</time></trkpt><trkpt lat="35.4069639" lon="139.1654059"><ele>323.1333333333334</ele><time>2025-11-29T20:24:03Z</time></trkpt><trkpt lat="35.4071237" lon="139.1652635"><ele>325.6766666666667</ele><time>2025-11-29T20:24:20Z</time></trkpt><trkpt lat="35.4072966" lon="139.1651944"><ele>327.81</ele><time>2025-11-29T20:24:37Z</time></trkpt><trkpt lat="35.4074738" lon="139.1650998"><ele>330.9433333333333</ele><time>2025-11-29T20:24:54Z</time></trkpt><trkpt lat="35.4076582" lon="139.1650272"><ele>333.36666666666673</ele><time>2025-11-29T20:25:17Z</time></trkpt><trkpt lat="35.4078362" lon="139.1649492"><ele>337.11</ele><time>2025-11-29T20:25:38Z</time></trkpt><trkpt lat="35.4080274" lon="139.1648785"><ele>340.21000000000004</ele><time>2025-11-29T20:26:00Z</time></trkpt><trkpt lat="35.4082038" lon="139.1648037"><ele>343.08</ele><time>2025-11-29T20:26:23Z</time></trkpt><trkpt lat="35.4083516" lon="139.1646529"><ele>345.50666666666666</ele><time>2025-11-29T20:26:40Z</time></trkpt><trkpt lat="35.4084791" lon="139.1644742"><ele>347.83</ele><time>2025-11-29T20:27:01Z</time></trkpt><trkpt lat="35.4086076" lon="139.164287"><ele>351.0266666666667</ele><time>2025-11-29T20:27:25Z</time></trkpt><trkpt lat="35.4087243" lon="139.1641001"><ele>354.6766666666667</ele><time>2025-11-29T20:27:46Z</time></trkpt><trkpt lat="35.4088934" lon="139.1639673"><ele>358.91333333333336</ele><time>2025-11-29T20:28:03Z</time></trkpt><trkpt lat="35.409082" lon="139.163889"><ele>363.25333333333333</ele><time>2025-11-29T20:28:21Z</time></trkpt><trkpt lat="35.4092707" lon="139.1638211"><ele>367.3833333333334</ele><time>2025-11-29T20:28:48Z</time></trkpt><trkpt lat="35.4094591" lon="139.1638257"><ele>370.8433333333333</ele><time>2025-11-29T20:29:12Z</time></trkpt><trkpt lat="35.4096446" lon="139.1638847"><ele>372.98999999999995</ele><time>2025-11-29T20:29:34Z</time></trkpt><trkpt lat="35.4098262" lon="139.1638684"><ele>374.0433333333333</ele><time>2025-11-29T20:29:52Z</time></trkpt><trkpt lat="35.4099719" lon="139.1637288"><ele>376.17333333333335</ele><time>2025-11-29T20:30:04Z</time></trkpt><trkpt lat="35.410106" lon="139.1635275"><ele>380.0566666666667</ele><time>2025-11-29T20:30:16Z</time></trkpt><trkpt lat="35.4102431" lon="139.163374"><ele>384.93000000000006</ele><time>2025-11-29T20:30:31Z</time></trkpt><trkpt lat="35.410359" lon="139.1631825"><ele>388.6333333333334</ele><time>2025-11-29T20:30:49Z</time></trkpt><trkpt lat="35.4105089" lon="139.163036"><ele>391.49000000000007</ele><time>2025-11-29T20:31:10Z</time></trkpt><trkpt lat="35.4106422" lon="139.1628731"><ele>394.7166666666667</ele><time>2025-11-29T20:31:31Z</time></trkpt><trkpt lat="35.4107808" lon="139.1627179"><ele>398.31</ele><time>2025-11-29T20:31:52Z</time></trkpt><trkpt lat="35.4109042" lon="139.1625283"><ele>403.6266666666667</ele><time>2025-11-29T20:32:19Z</time></trkpt><trkpt lat="35.4110325" lon="139.1623547"><ele>409.68666666666667</ele><time>2025-11-29T20:32:43Z</time></trkpt><trkpt lat="35.4111865" lon="139.162211"><ele>415.84666666666664</ele><time>2025-11-29T20:33:06Z</time></trkpt><trkpt lat="35.411344" lon="139.1620731"><ele>421.25666666666666</ele><time>2025-11-29T20:33:33Z</time></trkpt><trkpt lat="35.4114613" lon="139.1618859"><ele>426.73333333333335</ele><time>2025-11-29T20:33:56Z</time></trkpt><trkpt lat="35.4115592" lon="139.1616901"><ele>433.75666666666666</ele><time>2025-11-29T20:34:20Z</time></trkpt><trkpt lat="35.4117516" lon="139.1616682"><ele>441.97333333333336</ele><time>2025-11-29T20:34:50Z</time></trkpt><trkpt lat="35.411886" lon="139.1618654"><ele>446.56666666666666</ele><time>2025-11-29T20:35:11Z</time></trkpt><trkpt lat="35.4120342" lon="139.1619926"><ele>448.5733333333333</ele><time>2025-11-29T20:35:28Z</time></trkpt><trkpt lat="35.4122057" lon="139.1620804"><ele>446.7133333333333</ele><time>2025-11-29T20:35:52Z</time></trkpt><trkpt lat="35.4123744" lon="139.1619783"><ele>446.27333333333337</ele><time>2025-11-29T20:36:16Z</time></trkpt><trkpt lat="35.4125159" lon="139.161833"><ele>448.42</ele><time>2025-11-29T20:36:40Z</time></trkpt><trkpt lat="35.4126629" lon="139.1616807"><ele>451.9566666666667</ele><time>2025-11-29T20:37:01Z</time></trkpt><trkpt lat="35.4128274" lon="139.1615737"><ele>457.73</ele><time>2025-11-29T20:37:25Z</time></trkpt><trkpt lat="35.4130243" lon="139.1616321"><ele>460.91</ele><time>2025-11-29T20:37:51Z</time></trkpt><trkpt lat="35.4131969" lon="139.1617503"><ele>464.60999999999996</ele><time>2025-11-29T20:38:08Z</time></trkpt><trkpt lat="35.4133604" lon="139.1618619"><ele>465.5333333333333</ele><time>2025-11-29T20:38:26Z</time></trkpt><trkpt lat="35.4134299" lon="139.1620828"><ele>466.55999999999995</ele><time>2025-11-29T20:38:44Z</time></trkpt><trkpt lat="35.4135304" lon="139.1622926"><ele>466.97333333333336</ele><time>2025-11-29T20:39:08Z</time></trkpt><trkpt lat="35.4136979" lon="139.162398"><ele>469.33666666666676</ele><time>2025-11-29T20:39:37Z</time></trkpt><trkpt lat="35.4138945" lon="139.1623884"><ele>471.24</ele><time>2025-11-29T20:40:57Z</time></trkpt><trkpt lat="35.4141039" lon="139.1623648"><ele>472.6466666666667</ele><time>2025-11-29T20:41:15Z</time></trkpt><trkpt lat="35.4142746" lon="139.1622448"><ele>476.0799999999999</ele><time>2025-11-29T20:41:32Z</time></trkpt><trkpt lat="35.4143839" lon="139.1620485"><ele>482.8933333333334</ele><time>2025-11-29T20:41:53Z</time></trkpt><trkpt lat="35.4145711" lon="139.1621261"><ele>489.65333333333336</ele><time>2025-11-29T20:42:17Z</time></trkpt><trkpt lat="35.4147614" lon="139.1621864"><ele>495.06666666666666</ele><time>2025-11-29T20:42:38Z</time></trkpt><trkpt lat="35.4149359" lon="139.1623132"><ele>498.6133333333334</ele><time>2025-11-29T20:43:02Z</time></trkpt><trkpt lat="35.4149805" lon="139.1620878"><ele>504.56333333333333</ele><time>2025-11-29T20:44:22Z</time></trkpt><trkpt lat="35.4151695" lon="139.1621726"><ele>511.1166666666666</ele><time>2025-11-29T20:45:29Z</time></trkpt><trkpt lat="35.4152035" lon="139.1624061"><ele>515.77</ele><time>2025-11-29T20:45:50Z</time></trkpt><trkpt lat="35.4152866" lon="139.1626146"><ele>522.7233333333332</ele><time>2025-11-29T20:46:11Z</time></trkpt><trkpt lat="35.4153424" lon="139.1628427"><ele>526.4566666666667</ele><time>2025-11-29T20:46:38Z</time></trkpt><trkpt lat="35.4155437" lon="139.1628407"><ele>533.1633333333333</ele><time>2025-11-29T20:47:35Z</time></trkpt><trkpt lat="35.4157277" lon="139.1627867"><ele>538.0333333333333</ele><time>2025-11-29T20:47:59Z</time></trkpt><trkpt lat="35.4158878" lon="139.1626452"><ele>544.34</ele><time>2025-11-29T20:48:32Z</time></trkpt><trkpt lat="35.4160132" lon="139.1624649"><ele>550.6666666666666</ele><time>2025-11-29T20:49:02Z</time></trkpt><trkpt lat="35.4162113" lon="139.1624434"><ele>557.4066666666668</ele><time>2025-11-29T20:49:37Z</time></trkpt><trkpt lat="35.4164098" lon="139.1624893"><ele>562.7533333333333</ele><time>2025-11-29T20:50:07Z</time></trkpt><trkpt lat="35.4165749" lon="139.1623777"><ele>568.2199999999999</ele><time>2025-11-29T20:50:40Z</time></trkpt><trkpt lat="35.4167561" lon="139.1623986"><ele>573.6566666666668</ele><time>2025-11-29T20:51:04Z</time></trkpt><trkpt lat="35.4169422" lon="139.162453"><ele>579.31</ele><time>2025-11-29T20:51:37Z</time></trkpt><trkpt lat="35.4170996" lon="139.1625688"><ele>581.38</ele><time>2025-11-29T20:52:10Z</time></trkpt><trkpt lat="35.4172153" lon="139.1623944"><ele>582.88</ele><time>2025-11-29T20:52:40Z</time></trkpt><trkpt lat="35.4173792" lon="139.1622635"><ele>587.1733333333333</ele><time>2025-11-29T20:53:13Z</time></trkpt><trkpt lat="35.4175574" lon="139.1623036"><ele>591.39</ele><time>2025-11-29T20:53:36Z</time></trkpt><trkpt lat="35.4177407" lon="139.1623104"><ele>593.1266666666667</ele><time>2025-11-29T20:53:54Z</time></trkpt><trkpt lat="35.4179355" lon="139.1622551"><ele>593.73</ele><time>2025-11-29T20:54:15Z</time></trkpt><trkpt lat="35.4181338" lon="139.1622397"><ele>595.77</ele><time>2025-11-29T20:54:38Z</time></trkpt><trkpt lat="35.4183154" lon="139.1621819"><ele>598.6999999999999</ele><time>2025-11-29T20:54:59Z</time></trkpt><trkpt lat="35.4185146" lon="139.1622098"><ele>599.0666666666667</ele><time>2025-11-29T20:55:20Z</time></trkpt><trkpt lat="35.4187006" lon="139.1622401"><ele>599.12</ele><time>2025-11-29T20:55:35Z</time></trkpt><trkpt lat="35.4188812" lon="139.1621749"><ele>599.29</ele><time>2025-11-29T20:55:50Z</time></trkpt><trkpt lat="35.4190921" lon="139.1621169"><ele>600.3566666666667</ele><time>2025-11-29T20:56:08Z</time></trkpt><trkpt lat="35.4192912" lon="139.1620311"><ele>601.9066666666666</ele><time>2025-11-29T20:56:26Z</time></trkpt><trkpt lat="35.4194801" lon="139.1619962"><ele>602.9166666666666</ele><time>2025-11-29T20:56:44Z</time></trkpt><trkpt lat="35.4196789" lon="139.1620133"><ele>606.2166666666667</ele><time>2025-11-29T20:57:05Z</time></trkpt><trkpt lat="35.4198483" lon="139.1621599"><ele>610.2200000000001</ele><time>2025-11-29T20:57:25Z</time></trkpt><trkpt lat="35.4200378" lon="139.1621866"><ele>614.67</ele><time>2025-11-29T20:58:01Z</time></trkpt><trkpt lat="35.4202083" lon="139.1622939"><ele>620.6366666666667</ele><time>2025-11-29T20:58:39Z</time></trkpt><trkpt lat="35.4203967" lon="139.1622904"><ele>628.9833333333333</ele><time>2025-11-29T20:59:24Z</time></trkpt><trkpt lat="35.4205591" lon="139.1623871"><ele>639.61</ele><time>2025-11-29T20:59:57Z</time></trkpt><trkpt lat="35.4207435" lon="139.162359"><ele>649.38</ele><time>2025-11-29T21:00:42Z</time></trkpt><trkpt lat="35.4209445" lon="139.1623791"><ele>658.4066666666666</ele><time>2025-11-29T21:01:15Z</time></trkpt><trkpt lat="35.4210042" lon="139.1625873"><ele>665.9166666666666</ele><time>2025-11-29T21:01:50Z</time></trkpt><trkpt lat="35.4211826" lon="139.1626701"><ele>672.42</ele><time>2025-11-29T21:02:32Z</time></trkpt><trkpt lat="35.4212807" lon="139.1628737"><ele>677.6333333333333</ele><time>2025-11-29T21:03:07Z</time></trkpt><trkpt lat="35.4214718" lon="139.1629491"><ele>683.11</ele><time>2025-11-29T21:03:34Z</time></trkpt><trkpt lat="35.4215494" lon="139.1631593"><ele>687.9266666666666</ele><time>2025-11-29T21:04:01Z</time></trkpt><trkpt lat="35.4217406" lon="139.1632286"><ele>693.1133333333333</ele><time>2025-11-29T21:04:31Z</time></trkpt><trkpt lat="35.4219029" lon="139.1633501"><ele>697.6566666666668</ele><time>2025-11-29T21:05:01Z</time></trkpt><trkpt lat="35.4220436" lon="139.1634917"><ele>702.9766666666668</ele><time>2025-11-29T21:05:28Z</time></trkpt><trkpt lat="35.422203" lon="139.1636257"><ele>707.8433333333334</ele><time>2025-11-29T21:05:57Z</time></trkpt><trkpt lat="35.4223093" lon="139.1638216"><ele>712.9</ele><time>2025-11-29T21:06:30Z</time></trkpt><trkpt lat="35.4224147" lon="139.1640139"><ele>717.2566666666667</ele><time>2025-11-29T21:07:00Z</time></trkpt><trkpt lat="35.4225451" lon="139.1641904"><ele>722.21</ele><time>2025-11-29T21:07:41Z</time></trkpt><trkpt lat="35.4226771" lon="139.1643475"><ele>727.6300000000001</ele><time>2025-11-29T21:08:17Z</time></trkpt><trkpt lat="35.422828" lon="139.1644976"><ele>733.5966666666667</ele><time>2025-11-29T21:09:08Z</time></trkpt><trkpt lat="35.4228941" lon="139.1647231"><ele>739.5900000000001</ele><time>2025-11-29T21:09:40Z</time></trkpt><trkpt lat="35.4229975" lon="139.1649118"><ele>746.0433333333334</ele><time>2025-11-29T21:10:16Z</time></trkpt><trkpt lat="35.4231296" lon="139.1650674"><ele>752.8366666666667</ele><time>2025-11-29T21:11:09Z</time></trkpt><trkpt lat="35.4232513" lon="139.1652366"><ele>759.1466666666666</ele><time>2025-11-29T21:11:44Z</time></trkpt><trkpt lat="35.4234349" lon="139.1652008"><ele>763.8966666666666</ele><time>2025-11-29T21:12:14Z</time></trkpt><trkpt lat="35.4235858" lon="139.1653328"><ele>767.7733333333334</ele><time>2025-11-29T21:12:43Z</time></trkpt><trkpt lat="35.4237369" lon="139.1654859"><ele>771.9933333333333</ele><time>2025-11-29T21:13:19Z</time></trkpt><trkpt lat="35.4239134" lon="139.1655549"><ele>775.9466666666666</ele><time>2025-11-29T21:13:48Z</time></trkpt><trkpt lat="35.424051" lon="139.1657461"><ele>779.5033333333332</ele><time>2025-11-29T21:14:15Z</time></trkpt><trkpt lat="35.424176" lon="139.1659151"><ele>782.0966666666667</ele><time>2025-11-29T21:14:33Z</time></trkpt><trkpt lat="35.4243582" lon="139.1660184"><ele>784.0233333333334</ele><time>2025-11-29T21:14:48Z</time></trkpt><trkpt lat="35.4245359" lon="139.1660754"><ele>785.5633333333335</ele><time>2025-11-29T21:15:03Z</time></trkpt><trkpt lat="35.4247067" lon="139.1661471"><ele>786.6300000000001</ele><time>2025-11-29T21:15:18Z</time></trkpt><trkpt lat="35.4249016" lon="139.1662353"><ele>788.8166666666666</ele><time>2025-11-29T21:15:36Z</time></trkpt><trkpt lat="35.4250943" lon="139.1663187"><ele>791.77</ele><time>2025-11-29T21:15:56Z</time></trkpt><trkpt lat="35.425279" lon="139.1664251"><ele>794.8666666666667</ele><time>2025-11-29T21:16:16Z</time></trkpt><trkpt lat="35.4254622" lon="139.1664936"><ele>797.3066666666667</ele><time>2025-11-29T21:16:34Z</time></trkpt><trkpt lat="35.425653" lon="139.1665988"><ele>798.2000000000002</ele><time>2025-11-29T21:16:54Z</time></trkpt><trkpt lat="35.4258202" lon="139.1666839"><ele>798.4033333333333</ele><time>2025-11-29T21:17:11Z</time></trkpt><trkpt lat="35.4260242" lon="139.1667096"><ele>798.0300000000001</ele><time>2025-11-29T21:17:31Z</time></trkpt><trkpt lat="35.4262147" lon="139.1667547"><ele>799.1566666666666</ele><time>2025-11-29T21:17:52Z</time></trkpt><trkpt lat="35.4264167" lon="139.1667736"><ele>801.2033333333334</ele><time>2025-11-29T21:18:13Z</time></trkpt><trkpt lat="35.4265971" lon="139.1667184"><ele>804.41</ele><time>2025-11-29T21:18:34Z</time></trkpt><trkpt lat="35.4267799" lon="139.1667548"><ele>808.2933333333334</ele><time>2025-11-29T21:18:55Z</time></trkpt><trkpt lat="35.4269712" lon="139.1667055"><ele>814.4700000000001</ele><time>2025-11-29T21:19:25Z</time></trkpt><trkpt lat="35.4271612" lon="139.166625"><ele>821.9533333333334</ele><time>2025-11-29T21:19:52Z</time></trkpt><trkpt lat="35.4273571" lon="139.1666093"><ele>829.37</ele><time>2025-11-29T21:20:16Z</time></trkpt><trkpt lat="35.4275459" lon="139.1665729"><ele>835.7400000000001</ele><time>2025-11-29T21:20:49Z</time></trkpt><trkpt lat="35.4277365" lon="139.1666068"><ele>841.66</ele><time>2025-11-29T21:21:22Z</time></trkpt><trkpt lat="35.4279156" lon="139.1665434"><ele>848.0333333333333</ele><time>2025-11-29T21:22:03Z</time></trkpt><trkpt lat="35.4279919" lon="139.1663424"><ele>855.5133333333333</ele><time>2025-11-29T21:22:42Z</time></trkpt><trkpt lat="35.4281007" lon="139.1661497"><ele>864.13</ele><time>2025-11-29T21:23:45Z</time></trkpt><trkpt lat="35.4282494" lon="139.1660119"><ele>872.5666666666666</ele><time>2025-11-29T21:24:33Z</time></trkpt><trkpt lat="35.4283423" lon="139.1658194"><ele>879.7566666666667</ele><time>2025-11-29T21:25:17Z</time></trkpt><trkpt lat="35.4285143" lon="139.1656994"><ele>885.9933333333333</ele><time>2025-11-29T21:25:44Z</time></trkpt><trkpt lat="35.4285935" lon="139.165472"><ele>891.3466666666667</ele><time>2025-11-29T21:26:17Z</time></trkpt><trkpt lat="35.4287363" lon="139.1653151"><ele>896.2333333333332</ele><time>2025-11-29T21:26:44Z</time></trkpt><trkpt lat="35.4289149" lon="139.1652178"><ele>899.32</ele><time>2025-11-29T21:27:08Z</time></trkpt><trkpt lat="35.4290641" lon="139.1650807"><ele>901.8433333333334</ele><time>2025-11-29T21:27:32Z</time></trkpt><trkpt lat="35.4292257" lon="139.1649705"><ele>903.9266666666667</ele><time>2025-11-29T21:27:59Z</time></trkpt><trkpt lat="35.4294051" lon="139.1649035"><ele>906.7233333333334</ele><time>2025-11-29T21:28:20Z</time></trkpt><trkpt lat="35.4295708" lon="139.1647875"><ele>909.5100000000001</ele><time>2025-11-29T21:28:41Z</time></trkpt><trkpt lat="35.4297435" lon="139.1646833"><ele>911.9200000000001</ele><time>2025-11-29T21:29:02Z</time></trkpt><trkpt lat="35.4299175" lon="139.1645743"><ele>913.5666666666666</ele><time>2025-11-29T21:29:20Z</time></trkpt><trkpt lat="35.4301036" lon="139.1644711"><ele>915.25</ele><time>2025-11-29T21:29:38Z</time></trkpt><trkpt lat="35.4302805" lon="139.1643815"><ele>917.4900000000001</ele><time>2025-11-29T21:29:56Z</time></trkpt><trkpt lat="35.4304314" lon="139.1642418"><ele>919.7866666666667</ele><time>2025-11-29T21:30:14Z</time></trkpt><trkpt lat="35.4305836" lon="139.1640843"><ele>922.0066666666667</ele><time>2025-11-29T21:30:32Z</time></trkpt><trkpt lat="35.4307207" lon="139.1639267"><ele>923.8333333333334</ele><time>2025-11-29T21:30:50Z</time></trkpt><trkpt lat="35.4309019" lon="139.1638316"><ele>926.5166666666665</ele><time>2025-11-29T21:31:10Z</time></trkpt><trkpt lat="35.4310914" lon="139.1637186"><ele>928.4933333333333</ele><time>2025-11-29T21:31:31Z</time></trkpt><trkpt lat="35.4312468" lon="139.1635915"><ele>929.6366666666667</ele><time>2025-11-29T21:32:00Z</time></trkpt><trkpt lat="35.4314414" lon="139.1636283"><ele>929.9466666666667</ele><time>2025-11-29T21:32:27Z</time></trkpt><trkpt lat="35.4316826" lon="139.1636918"><ele>931.2366666666667</ele><time>2025-11-29T21:32:39Z</time></trkpt><trkpt lat="35.4318959" lon="139.1637258"><ele>932.8299999999999</ele><time>2025-11-29T21:32:51Z</time></trkpt><trkpt lat="35.4320837" lon="139.1637483"><ele>934.0866666666667</ele><time>2025-11-29T21:33:03Z</time></trkpt><trkpt lat="35.4322674" lon="139.1638323"><ele>934.66</ele><time>2025-11-29T21:33:18Z</time></trkpt><trkpt lat="35.4324257" lon="139.1639434"><ele>936.1933333333335</ele><time>2025-11-29T21:33:33Z</time></trkpt><trkpt lat="35.4326084" lon="139.1640071"><ele>938.08</ele><time>2025-11-29T21:33:48Z</time></trkpt><trkpt lat="35.4327983" lon="139.1640501"><ele>940.0566666666667</ele><time>2025-11-29T21:34:03Z</time></trkpt><trkpt lat="35.4329843" lon="139.1639645"><ele>940.59</ele><time>2025-11-29T21:34:21Z</time></trkpt><trkpt lat="35.4331467" lon="139.16385"><ele>939.7633333333333</ele><time>2025-11-29T21:34:35Z</time></trkpt><trkpt lat="35.4333257" lon="139.1637263"><ele>936.4766666666668</ele><time>2025-11-29T21:34:49Z</time></trkpt><trkpt lat="35.4335199" lon="139.1636766"><ele>932.6366666666667</ele><time>2025-11-29T21:35:04Z</time></trkpt><trkpt lat="35.4337226" lon="139.1636475"><ele>928.9633333333335</ele><time>2025-11-29T21:35:19Z</time></trkpt><trkpt lat="35.4339174" lon="139.1636386"><ele>926.8266666666667</ele><time>2025-11-29T21:35:33Z</time></trkpt><trkpt lat="35.4341178" lon="139.1636494"><ele>925.1733333333333</ele><time>2025-11-29T21:35:47Z</time></trkpt><trkpt lat="35.4343047" lon="139.1636703"><ele>923.8233333333334</ele><time>2025-11-29T21:36:05Z</time></trkpt><trkpt lat="35.4344944" lon="139.1635794"><ele>922.9066666666668</ele><time>2025-11-29T21:36:35Z</time></trkpt><trkpt lat="35.4346893" lon="139.163455"><ele>921.1466666666669</ele><time>2025-11-29T21:36:50Z</time></trkpt><trkpt lat="35.4348922" lon="139.1635336"><ele>918.2766666666668</ele><time>2025-11-29T21:37:05Z</time></trkpt><trkpt lat="35.4350865" lon="139.1635415"><ele>914.6066666666667</ele><time>2025-11-29T21:37:19Z</time></trkpt><trkpt lat="35.4352678" lon="139.1634636"><ele>910.3066666666667</ele><time>2025-11-29T21:37:34Z</time></trkpt><trkpt lat="35.4354584" lon="139.1635117"><ele>909.5633333333334</ele><time>2025-11-29T21:37:46Z</time></trkpt><trkpt lat="35.4356367" lon="139.1634616"><ele>910.2833333333333</ele><time>2025-11-29T21:38:01Z</time></trkpt><trkpt lat="35.4357609" lon="139.1632556"><ele>915.7200000000001</ele><time>2025-11-29T21:38:19Z</time></trkpt><trkpt lat="35.4359369" lon="139.1631618"><ele>921.75</ele><time>2025-11-29T21:38:52Z</time></trkpt><trkpt lat="35.436094" lon="139.1630268"><ele>928.3266666666667</ele><time>2025-11-29T21:39:16Z</time></trkpt><trkpt lat="35.4362431" lon="139.1628791"><ele>933.1266666666667</ele><time>2025-11-29T21:39:43Z</time></trkpt><trkpt lat="35.4363096" lon="139.162647"><ele>938.5500000000001</ele><time>2025-11-29T21:40:19Z</time></trkpt><trkpt lat="35.4362301" lon="139.1624299"><ele>944.7933333333334</ele><time>2025-11-29T21:40:43Z</time></trkpt><trkpt lat="35.4361964" lon="139.1621892"><ele>949.1266666666667</ele><time>2025-11-29T21:41:15Z</time></trkpt><trkpt lat="35.4363693" lon="139.1622786"><ele>953.2666666666668</ele><time>2025-11-29T21:42:17Z</time></trkpt><trkpt lat="35.4365001" lon="139.1624379"><ele>956.9700000000001</ele><time>2025-11-29T21:42:50Z</time></trkpt><trkpt lat="35.4366749" lon="139.1623317"><ele>961.8933333333334</ele><time>2025-11-29T21:43:23Z</time></trkpt><trkpt lat="35.4368693" lon="139.1623167"><ele>966.16</ele><time>2025-11-29T21:44:32Z</time></trkpt><trkpt lat="35.4370555" lon="139.1623562"><ele>972.19</ele><time>2025-11-29T21:44:59Z</time></trkpt><trkpt lat="35.4371341" lon="139.1621555"><ele>977.6133333333333</ele><time>2025-11-29T21:45:49Z</time></trkpt><trkpt lat="35.4373204" lon="139.1622286"><ele>986.1</ele><time>2025-11-29T21:46:40Z</time></trkpt><trkpt lat="35.4375114" lon="139.162234"><ele>993.5300000000001</ele><time>2025-11-29T21:47:25Z</time></trkpt><trkpt lat="35.4376978" lon="139.1622322"><ele>1003.4366666666666</ele><time>2025-11-29T21:48:07Z</time></trkpt><trkpt lat="35.4378724" lon="139.1623243"><ele>1009.5300000000001</ele><time>2025-11-29T21:48:37Z</time></trkpt><trkpt lat="35.4380448" lon="139.1624077"><ele>1016.3466666666667</ele><time>2025-11-29T21:49:06Z</time></trkpt><trkpt lat="35.4382378" lon="139.1624057"><ele>1023.0933333333332</ele><time>2025-11-29T21:49:51Z</time></trkpt><trkpt lat="35.4384021" lon="139.1625277"><ele>1030.0933333333332</ele><time>2025-11-29T21:50:27Z</time></trkpt><trkpt lat="35.4385675" lon="139.1626529"><ele>1036.7833333333335</ele><time>2025-11-29T21:51:09Z</time></trkpt><trkpt lat="35.4387102" lon="139.1628109"><ele>1043.6366666666665</ele><time>2025-11-29T21:51:45Z</time></trkpt><trkpt lat="35.4388797" lon="139.1629038"><ele>1051.6633333333332</ele><time>2025-11-29T21:52:29Z</time></trkpt><trkpt lat="35.4390312" lon="139.1630371"><ele>1059.78</ele><time>2025-11-29T21:53:13Z</time></trkpt><trkpt lat="35.4392213" lon="139.1630776"><ele>1069.05</ele><time>2025-11-29T21:53:58Z</time></trkpt><trkpt lat="35.4393848" lon="139.1631986"><ele>1077.4566666666667</ele><time>2025-11-29T21:54:42Z</time></trkpt><trkpt lat="35.4395647" lon="139.1632577"><ele>1086.5866666666668</ele><time>2025-11-29T21:55:27Z</time></trkpt><trkpt lat="35.4397556" lon="139.1632759"><ele>1094.1000000000001</ele><time>2025-11-29T21:56:12Z</time></trkpt><trkpt lat="35.439955" lon="139.1632482"><ele>1101.6766666666667</ele><time>2025-11-29T21:56:42Z</time></trkpt><trkpt lat="35.440138" lon="139.1631718"><ele>1109.0600000000002</ele><time>2025-11-29T21:57:15Z</time></trkpt><trkpt lat="35.4403069" lon="139.1630211"><ele>1115.743333333333</ele><time>2025-11-29T21:57:48Z</time></trkpt><trkpt lat="35.4404515" lon="139.1628629"><ele>1120.73</ele><time>2025-11-29T21:58:09Z</time></trkpt><trkpt lat="35.4405797" lon="139.1627019"><ele>1122.7733333333335</ele><time>2025-11-29T21:58:26Z</time></trkpt><trkpt lat="35.4407676" lon="139.1625992"><ele>1123.9066666666668</ele><time>2025-11-29T21:58:43Z</time></trkpt><trkpt lat="35.4409503" lon="139.1625143"><ele>1124.16</ele><time>2025-11-29T21:58:58Z</time></trkpt><trkpt lat="35.4411324" lon="139.1624425"><ele>1125.1633333333334</ele><time>2025-11-29T21:59:16Z</time></trkpt><trkpt lat="35.4413273" lon="139.1623571"><ele>1125.5233333333335</ele><time>2025-11-29T21:59:36Z</time></trkpt><trkpt lat="35.4415279" lon="139.1622888"><ele>1127.58</ele><time>2025-11-29T21:59:55Z</time></trkpt><trkpt lat="35.4417002" lon="139.1622201"><ele>1128.7866666666669</ele><time>2025-11-29T22:00:16Z</time></trkpt><trkpt lat="35.4418923" lon="139.1622299"><ele>1133.3366666666668</ele><time>2025-11-29T22:00:43Z</time></trkpt><trkpt lat="35.4420745" lon="139.1622171"><ele>1139.1200000000001</ele><time>2025-11-29T22:01:10Z</time></trkpt><trkpt lat="35.4422475" lon="139.162289"><ele>1146.4833333333333</ele><time>2025-11-29T22:01:43Z</time></trkpt><trkpt lat="35.442423" lon="139.1623506"><ele>1151.2433333333333</ele><time>2025-11-29T22:02:13Z</time></trkpt><trkpt lat="35.4426134" lon="139.162402"><ele>1155.1366666666668</ele><time>2025-11-29T22:02:36Z</time></trkpt><trkpt lat="35.442771" lon="139.1625104"><ele>1160.3400000000001</ele><time>2025-11-29T22:03:09Z</time></trkpt><trkpt lat="35.4429622" lon="139.1624961"><ele>1166.5366666666666</ele><time>2025-11-29T22:03:54Z</time></trkpt><trkpt lat="35.4431443" lon="139.162538"><ele>1174.1000000000001</ele><time>2025-11-29T22:04:39Z</time></trkpt><trkpt lat="35.4433243" lon="139.1625138"><ele>1179.8466666666666</ele><time>2025-11-29T22:05:27Z</time></trkpt><trkpt lat="35.4435115" lon="139.1625426"><ele>1190.0200000000002</ele><time>2025-11-29T22:06:24Z</time></trkpt><trkpt lat="35.4436949" lon="139.1625183"><ele>1200.5533333333335</ele><time>2025-11-29T22:07:42Z</time></trkpt><trkpt lat="35.4438662" lon="139.1625905"><ele>1212.1733333333334</ele><time>2025-11-29T22:08:48Z</time></trkpt><trkpt lat="35.4440518" lon="139.1625534"><ele>1221.4166666666667</ele><time>2025-11-29T22:09:54Z</time></trkpt><trkpt lat="35.4442353" lon="139.1625917"><ele>1229.5566666666666</ele><time>2025-11-29T22:10:39Z</time></trkpt><trkpt lat="35.4443969" lon="139.1627043"><ele>1238.6766666666665</ele><time>2025-11-29T22:11:27Z</time></trkpt><trkpt lat="35.4445812" lon="139.1627004"><ele>1246.5066666666667</ele><time>2025-11-29T22:12:36Z</time></trkpt><trkpt lat="35.4447605" lon="139.162664"><ele>1256.18</ele><time>2025-11-29T22:13:15Z</time></trkpt><trkpt lat="35.4449446" lon="139.1627179"><ele>1266.4766666666667</ele><time>2025-11-29T22:14:12Z</time></trkpt><trkpt lat="35.4451301" lon="139.1627184"><ele>1276.93</ele><time>2025-11-29T22:15:00Z</time></trkpt><trkpt lat="35.4453117" lon="139.162687"><ele>1286.3133333333333</ele><time>2025-11-29T22:15:42Z</time></trkpt><trkpt lat="35.4454707" lon="139.162582"><ele>1293.4833333333333</ele><time>2025-11-29T22:16:38Z</time></trkpt><trkpt lat="35.4457186" lon="139.1625611"><ele>1299.7633333333333</ele><time>2025-11-29T22:17:43Z</time></trkpt><trkpt lat="35.4459132" lon="139.1625599"><ele>1303.8100000000002</ele><time>2025-11-29T22:17:58Z</time></trkpt><trkpt lat="35.4461051" lon="139.1625805"><ele>1308.3333333333335</ele><time>2025-11-29T22:18:25Z</time></trkpt><trkpt lat="35.4462861" lon="139.1625284"><ele>1314.1166666666668</ele><time>2025-11-29T22:18:58Z</time></trkpt><trkpt lat="35.4464356" lon="139.1623851"><ele>1319.8966666666668</ele><time>2025-11-29T22:19:43Z</time></trkpt><trkpt lat="35.4466201" lon="139.1623131"><ele>1325.8366666666668</ele><time>2025-11-29T22:20:30Z</time></trkpt><trkpt lat="35.446788" lon="139.1621977"><ele>1330.8433333333332</ele><time>2025-11-29T22:21:15Z</time></trkpt><trkpt lat="35.4468787" lon="139.1620005"><ele>1336.37</ele><time>2025-11-29T22:22:00Z</time></trkpt><trkpt lat="35.4470533" lon="139.1619022"><ele>1343.3466666666666</ele><time>2025-11-29T22:22:51Z</time></trkpt><trkpt lat="35.4472276" lon="139.1618357"><ele>1350.3766666666668</ele><time>2025-11-29T22:23:39Z</time></trkpt><trkpt lat="35.4473556" lon="139.1616699"><ele>1355.6266666666668</ele><time>2025-11-29T22:24:17Z</time></trkpt><trkpt lat="35.4475399" lon="139.1617235"><ele>1360.8033333333333</ele><time>2025-11-29T22:24:53Z</time></trkpt><trkpt lat="35.4477167" lon="139.1616715"><ele>1364.8933333333334</ele><time>2025-11-29T22:25:29Z</time></trkpt><trkpt lat="35.4479002" lon="139.1617257"><ele>1369.61</ele><time>2025-11-29T22:25:59Z</time></trkpt><trkpt lat="35.4480845" lon="139.1617345"><ele>1370.7533333333333</ele><time>2025-11-29T22:26:20Z</time></trkpt><trkpt lat="35.4482692" lon="139.1616582"><ele>1370.706666666667</ele><time>2025-11-29T22:26:37Z</time></trkpt><trkpt lat="35.4484498" lon="139.1617313"><ele>1368.7233333333334</ele><time>2025-11-29T22:26:51Z</time></trkpt><trkpt lat="35.4486384" lon="139.1617939"><ele>1366.8566666666666</ele><time>2025-11-29T22:27:06Z</time></trkpt><trkpt lat="35.4488467" lon="139.1617927"><ele>1366.2733333333333</ele><time>2025-11-29T22:27:27Z</time></trkpt><trkpt lat="35.4490055" lon="139.1616458"><ele>1366.3266666666666</ele><time>2025-11-29T22:27:44Z</time></trkpt><trkpt lat="35.4492107" lon="139.1616268"><ele>1367.206666666667</ele><time>2025-11-29T22:28:02Z</time></trkpt><trkpt lat="35.4493199" lon="139.1614153"><ele>1364.5633333333335</ele><time>2025-11-29T22:28:29Z</time></trkpt><trkpt lat="35.4494552" lon="139.161232"><ele>1361.8533333333332</ele><time>2025-11-29T22:28:50Z</time></trkpt><trkpt lat="35.4496158" lon="139.1610925"><ele>1359.7033333333331</ele><time>2025-11-29T22:29:04Z</time></trkpt><trkpt lat="35.4497392" lon="139.1609196"><ele>1361.8766666666668</ele><time>2025-11-29T22:29:31Z</time></trkpt><trkpt lat="35.44995" lon="139.1610075"><ele>1366.68</ele><time>2025-11-29T22:30:01Z</time></trkpt><trkpt lat="35.4501325" lon="139.1611321"><ele>1370.33</ele><time>2025-11-29T22:30:19Z</time></trkpt><trkpt lat="35.4503181" lon="139.161083"><ele>1372.6933333333334</ele><time>2025-11-29T22:30:37Z</time></trkpt><trkpt lat="35.4505021" lon="139.1610112"><ele>1375.0533333333333</ele><time>2025-11-29T22:31:07Z</time></trkpt><trkpt lat="35.4506937" lon="139.1609597"><ele>1378.0200000000002</ele><time>2025-11-29T22:31:34Z</time></trkpt><trkpt lat="35.4508654" lon="139.1610782"><ele>1383.3466666666666</ele><time>2025-11-29T22:32:04Z</time></trkpt><trkpt lat="35.4510217" lon="139.1611905"><ele>1388.3566666666668</ele><time>2025-11-29T22:32:37Z</time></trkpt><trkpt lat="35.4511644" lon="139.1613312"><ele>1393.9733333333334</ele><time>2025-11-29T22:33:07Z</time></trkpt><trkpt lat="35.4513057" lon="139.1615009"><ele>1397.5566666666666</ele><time>2025-11-29T22:33:40Z</time></trkpt><trkpt lat="35.4514337" lon="139.161671"><ele>1401.0433333333333</ele><time>2025-11-29T22:34:07Z</time></trkpt><trkpt lat="35.4515797" lon="139.1618197"><ele>1402.9733333333334</ele><time>2025-11-29T22:34:25Z</time></trkpt><trkpt lat="35.4517647" lon="139.1619258"><ele>1404.86</ele><time>2025-11-29T22:34:43Z</time></trkpt><trkpt lat="35.4519409" lon="139.1619795"><ele>1406.4166666666667</ele><time>2025-11-29T22:35:01Z</time></trkpt><trkpt lat="35.4520914" lon="139.1621272"><ele>1408.8700000000001</ele><time>2025-11-29T22:35:27Z</time></trkpt><trkpt lat="35.4522751" lon="139.1621195"><ele>1411.88</ele><time>2025-11-29T22:36:21Z</time></trkpt><trkpt lat="35.4524653" lon="139.1620786"><ele>1416.1966666666667</ele><time>2025-11-29T22:36:57Z</time></trkpt><trkpt lat="35.4526214" lon="139.162224"><ele>1421.2333333333333</ele><time>2025-11-29T22:37:30Z</time></trkpt><trkpt lat="35.4528053" lon="139.1623072"><ele>1427.1966666666667</ele><time>2025-11-29T22:38:03Z</time></trkpt><trkpt lat="35.4529533" lon="139.1624393"><ele>1432.4966666666667</ele><time>2025-11-29T22:38:24Z</time></trkpt><trkpt lat="35.4530648" lon="139.1626192"><ele>1439.2866666666669</ele><time>2025-11-29T22:39:15Z</time></trkpt><trkpt lat="35.4531891" lon="139.1627793"><ele>1445.24</ele><time>2025-11-29T22:40:06Z</time></trkpt><trkpt lat="35.4532972" lon="139.1629695"><ele>1452.8433333333332</ele><time>2025-11-29T22:40:42Z</time></trkpt><trkpt lat="35.4534561" lon="139.1630921"><ele>1458.7966666666669</ele><time>2025-11-29T22:41:20Z</time></trkpt><trkpt lat="35.4536065" lon="139.1632512"><ele>1466.5199999999998</ele><time>2025-11-29T22:41:58Z</time></trkpt><trkpt lat="35.4537907" lon="139.1632858"><ele>1474.3633333333335</ele><time>2025-11-29T22:42:40Z</time></trkpt><trkpt lat="35.4540036" lon="139.1632762"><ele>1482.6599999999999</ele><time>2025-11-29T22:43:16Z</time></trkpt><trkpt lat="35.4541438" lon="139.1634316"><ele>1488.0266666666669</ele><time>2025-11-29T22:44:37Z</time></trkpt><trkpt lat="35.453961" lon="139.1632875"><ele>1490.0233333333333</ele><time>2025-11-29T22:55:58Z</time></trkpt><trkpt lat="35.4537591" lon="139.1633056"><ele>1488.8100000000002</ele><time>2025-11-29T22:56:18Z</time></trkpt><trkpt lat="35.4535738" lon="139.1632901"><ele>1483.4433333333334</ele><time>2025-11-29T22:56:48Z</time></trkpt><trkpt lat="35.453468" lon="139.1630895"><ele>1475.1466666666668</ele><time>2025-11-29T22:57:15Z</time></trkpt><trkpt lat="35.4532924" lon="139.1629973"><ele>1466.5200000000002</ele><time>2025-11-29T22:57:42Z</time></trkpt><trkpt lat="35.4531788" lon="139.1628057"><ele>1459.3733333333332</ele><time>2025-11-29T22:58:06Z</time></trkpt><trkpt lat="35.453036" lon="139.1626331"><ele>1452.4599999999998</ele><time>2025-11-29T22:58:38Z</time></trkpt><trkpt lat="35.4529214" lon="139.1624341"><ele>1444.8566666666666</ele><time>2025-11-29T22:59:13Z</time></trkpt><trkpt lat="35.4527398" lon="139.1623161"><ele>1437.66</ele><time>2025-11-29T22:59:34Z</time></trkpt><trkpt lat="35.4525794" lon="139.1621793"><ele>1431.5933333333332</ele><time>2025-11-29T22:59:52Z</time></trkpt><trkpt lat="35.4524034" lon="139.1620974"><ele>1425.7533333333333</ele><time>2025-11-29T23:00:13Z</time></trkpt><trkpt lat="35.4522192" lon="139.1621761"><ele>1420.4566666666667</ele><time>2025-11-29T23:00:31Z</time></trkpt><trkpt lat="35.4520251" lon="139.1620754"><ele>1415.0</ele><time>2025-11-29T23:00:52Z</time></trkpt><trkpt lat="35.4518243" lon="139.1619776"><ele>1410.6133333333335</ele><time>2025-11-29T23:01:09Z</time></trkpt><trkpt lat="35.4516411" lon="139.1618936"><ele>1406.9933333333336</ele><time>2025-11-29T23:01:23Z</time></trkpt><trkpt lat="35.4514846" lon="139.161781"><ele>1404.7666666666667</ele><time>2025-11-29T23:01:41Z</time></trkpt><trkpt lat="35.4513862" lon="139.1615635"><ele>1403.3666666666668</ele><time>2025-11-29T23:01:59Z</time></trkpt><trkpt lat="35.4512163" lon="139.1614296"><ele>1402.1633333333332</ele><time>2025-11-29T23:02:20Z</time></trkpt><trkpt lat="35.4510765" lon="139.1612609"><ele>1399.97</ele><time>2025-11-29T23:02:40Z</time></trkpt><trkpt lat="35.450905" lon="139.1611392"><ele>1395.8033333333333</ele><time>2025-11-29T23:02:55Z</time></trkpt><trkpt lat="35.4507424" lon="139.1610315"><ele>1390.7933333333333</ele><time>2025-11-29T23:03:12Z</time></trkpt><trkpt lat="35.4505438" lon="139.1610301"><ele>1385.5866666666668</ele><time>2025-11-29T23:03:33Z</time></trkpt><trkpt lat="35.4503577" lon="139.1610473"><ele>1379.89</ele><time>2025-11-29T23:03:53Z</time></trkpt><trkpt lat="35.4502065" lon="139.1611709"><ele>1376.006666666667</ele><time>2025-11-29T23:04:08Z</time></trkpt><trkpt lat="35.4500215" lon="139.1610546"><ele>1373.0600000000002</ele><time>2025-11-29T23:04:22Z</time></trkpt><trkpt lat="35.4498372" lon="139.1609381"><ele>1372.1499999999999</ele><time>2025-11-29T23:04:40Z</time></trkpt><trkpt lat="35.4496939" lon="139.1610742"><ele>1368.9133333333332</ele><time>2025-11-29T23:04:57Z</time></trkpt><trkpt lat="35.4495459" lon="139.161252"><ele>1365.5200000000002</ele><time>2025-11-29T23:05:18Z</time></trkpt><trkpt lat="35.4494234" lon="139.1614159"><ele>1362.5366666666666</ele><time>2025-11-29T23:05:33Z</time></trkpt><trkpt lat="35.4492667" lon="139.1615564"><ele>1362.2700000000002</ele><time>2025-11-29T23:05:56Z</time></trkpt><trkpt lat="35.4490744" lon="139.161619"><ele>1364.1066666666668</ele><time>2025-11-29T23:06:32Z</time></trkpt><trkpt lat="35.4489312" lon="139.1617529"><ele>1366.6966666666667</ele><time>2025-11-29T23:06:50Z</time></trkpt><trkpt lat="35.4487391" lon="139.1618335"><ele>1367.426666666667</ele><time>2025-11-29T23:07:07Z</time></trkpt><trkpt lat="35.4485604" lon="139.1617618"><ele>1367.63</ele><time>2025-11-29T23:07:22Z</time></trkpt><trkpt lat="35.4483766" lon="139.1617286"><ele>1367.6333333333334</ele><time>2025-11-29T23:07:40Z</time></trkpt><trkpt lat="35.4481745" lon="139.161693"><ele>1369.4800000000002</ele><time>2025-11-29T23:08:03Z</time></trkpt><trkpt lat="35.4479945" lon="139.1617384"><ele>1370.5500000000002</ele><time>2025-11-29T23:08:20Z</time></trkpt><trkpt lat="35.4477948" lon="139.1617037"><ele>1370.9966666666667</ele><time>2025-11-29T23:08:35Z</time></trkpt><trkpt lat="35.4475873" lon="139.1617158"><ele>1369.7833333333335</ele><time>2025-11-29T23:08:59Z</time></trkpt><trkpt lat="35.447407" lon="139.1616944"><ele>1367.216666666667</ele><time>2025-11-29T23:09:31Z</time></trkpt><trkpt lat="35.4472649" lon="139.1618584"><ele>1363.2666666666667</ele><time>2025-11-29T23:09:52Z</time></trkpt><trkpt lat="35.4470637" lon="139.1618982"><ele>1358.09</ele><time>2025-11-29T23:10:19Z</time></trkpt><trkpt lat="35.4468865" lon="139.1619967"><ele>1350.6433333333334</ele><time>2025-11-29T23:10:55Z</time></trkpt><trkpt lat="35.4467996" lon="139.1622174"><ele>1343.3466666666666</ele><time>2025-11-29T23:11:24Z</time></trkpt><trkpt lat="35.4466334" lon="139.162318"><ele>1336.37</ele><time>2025-11-29T23:11:48Z</time></trkpt><trkpt lat="35.4464688" lon="139.1624233"><ele>1330.8433333333332</ele><time>2025-11-29T23:12:09Z</time></trkpt><trkpt lat="35.4462991" lon="139.1625148"><ele>1325.8366666666668</ele><time>2025-11-29T23:12:39Z</time></trkpt><trkpt lat="35.4461267" lon="139.1625945"><ele>1319.8966666666668</ele><time>2025-11-29T23:13:02Z</time></trkpt><trkpt lat="35.4459214" lon="139.1625551"><ele>1314.7533333333333</ele><time>2025-11-29T23:13:26Z</time></trkpt><trkpt lat="35.4457286" lon="139.1625988"><ele>1308.97</ele><time>2025-11-29T23:13:44Z</time></trkpt><trkpt lat="35.445521" lon="139.1625972"><ele>1304.9466666666667</ele><time>2025-11-29T23:14:01Z</time></trkpt><trkpt lat="35.4453259" lon="139.162671"><ele>1300.2633333333333</ele><time>2025-11-29T23:14:22Z</time></trkpt><trkpt lat="35.4451259" lon="139.1627586"><ele>1293.9833333333333</ele><time>2025-11-29T23:14:40Z</time></trkpt><trkpt lat="35.4449403" lon="139.1627737"><ele>1286.3133333333333</ele><time>2025-11-29T23:14:57Z</time></trkpt><trkpt lat="35.4447342" lon="139.1627407"><ele>1277.0666666666666</ele><time>2025-11-29T23:15:18Z</time></trkpt><trkpt lat="35.4445392" lon="139.1627381"><ele>1266.8033333333333</ele><time>2025-11-29T23:15:44Z</time></trkpt><trkpt lat="35.4443564" lon="139.1627306"><ele>1255.69</ele><time>2025-11-29T23:15:59Z</time></trkpt><trkpt lat="35.4442103" lon="139.1625774"><ele>1245.8799999999999</ele><time>2025-11-29T23:16:23Z</time></trkpt><trkpt lat="35.4440292" lon="139.1625271"><ele>1236.2066666666667</ele><time>2025-11-29T23:16:59Z</time></trkpt><trkpt lat="35.4438501" lon="139.1625521"><ele>1227.9033333333334</ele><time>2025-11-29T23:17:35Z</time></trkpt><trkpt lat="35.4436533" lon="139.1625087"><ele>1218.68</ele><time>2025-11-29T23:18:14Z</time></trkpt><trkpt lat="35.4434591" lon="139.1625543"><ele>1209.53</ele><time>2025-11-29T23:19:20Z</time></trkpt><trkpt lat="35.4432795" lon="139.162495"><ele>1197.91</ele><time>2025-11-29T23:19:47Z</time></trkpt><trkpt lat="35.4431148" lon="139.1625984"><ele>1187.6233333333332</ele><time>2025-11-29T23:20:14Z</time></trkpt><trkpt lat="35.4429471" lon="139.1624877"><ele>1179.01</ele><time>2025-11-29T23:20:38Z</time></trkpt><trkpt lat="35.442753" lon="139.1625621"><ele>1172.8733333333332</ele><time>2025-11-29T23:21:02Z</time></trkpt><trkpt lat="35.4425771" lon="139.1624844"><ele>1167.0233333333333</ele><time>2025-11-29T23:21:28Z</time></trkpt><trkpt lat="35.4423787" lon="139.1624067"><ele>1161.3466666666666</ele><time>2025-11-29T23:21:49Z</time></trkpt><trkpt lat="35.4422174" lon="139.1622778"><ele>1156.5333333333333</ele><time>2025-11-29T23:22:04Z</time></trkpt><trkpt lat="35.4420299" lon="139.162258"><ele>1150.8533333333335</ele><time>2025-11-29T23:22:25Z</time></trkpt><trkpt lat="35.4418244" lon="139.1622135"><ele>1144.5966666666668</ele><time>2025-11-29T23:22:52Z</time></trkpt><trkpt lat="35.4416591" lon="139.1623099"><ele>1138.4333333333334</ele><time>2025-11-29T23:23:09Z</time></trkpt><trkpt lat="35.4415003" lon="139.1624235"><ele>1134.236666666667</ele><time>2025-11-29T23:23:30Z</time></trkpt><trkpt lat="35.4413025" lon="139.1623802"><ele>1132.24</ele><time>2025-11-29T23:23:51Z</time></trkpt><trkpt lat="35.4411151" lon="139.1624438"><ele>1129.8333333333335</ele><time>2025-11-29T23:24:06Z</time></trkpt><trkpt lat="35.4409458" lon="139.162532"><ele>1127.966666666667</ele><time>2025-11-29T23:24:17Z</time></trkpt><trkpt lat="35.440743" lon="139.1626396"><ele>1126.3966666666665</ele><time>2025-11-29T23:24:32Z</time></trkpt><trkpt lat="35.4405578" lon="139.1627851"><ele>1125.66</ele><time>2025-11-29T23:24:46Z</time></trkpt><trkpt lat="35.440412" lon="139.1629436"><ele>1124.5533333333335</ele><time>2025-11-29T23:24:58Z</time></trkpt><trkpt lat="35.4402616" lon="139.163104"><ele>1122.9366666666667</ele><time>2025-11-29T23:25:12Z</time></trkpt><trkpt lat="35.4401214" lon="139.1632648"><ele>1120.1499999999999</ele><time>2025-11-29T23:25:36Z</time></trkpt><trkpt lat="35.4399372" lon="139.1633677"><ele>1115.03</ele><time>2025-11-29T23:25:54Z</time></trkpt><trkpt lat="35.4397779" lon="139.1632384"><ele>1109.2166666666665</ele><time>2025-11-29T23:26:15Z</time></trkpt><trkpt lat="35.4395975" lon="139.1632856"><ele>1102.31</ele><time>2025-11-29T23:26:32Z</time></trkpt><trkpt lat="35.4393895" lon="139.163293"><ele>1095.1733333333334</ele><time>2025-11-29T23:26:50Z</time></trkpt><trkpt lat="35.4392429" lon="139.1631409"><ele>1087.2766666666666</ele><time>2025-11-29T23:27:11Z</time></trkpt><trkpt lat="35.439055" lon="139.1631068"><ele>1078.5600000000002</ele><time>2025-11-29T23:27:43Z</time></trkpt><trkpt lat="35.4388613" lon="139.1629907"><ele>1070.2866666666666</ele><time>2025-11-29T23:28:27Z</time></trkpt><trkpt lat="35.4386829" lon="139.1628969"><ele>1061.0666666666666</ele><time>2025-11-29T23:28:56Z</time></trkpt><trkpt lat="35.4385471" lon="139.1627249"><ele>1053.05</ele><time>2025-11-29T23:29:23Z</time></trkpt><trkpt lat="35.4384144" lon="139.1625282"><ele>1044.57</ele><time>2025-11-29T23:29:46Z</time></trkpt><trkpt lat="35.4382253" lon="139.1624697"><ele>1037.0533333333333</ele><time>2025-11-29T23:30:10Z</time></trkpt><trkpt lat="35.4380295" lon="139.1624539"><ele>1029.96</ele><time>2025-11-29T23:30:48Z</time></trkpt><trkpt lat="35.4378321" lon="139.162371"><ele>1022.75</ele><time>2025-11-29T23:31:09Z</time></trkpt><trkpt lat="35.4376658" lon="139.1622269"><ele>1015.48</ele><time>2025-11-29T23:31:29Z</time></trkpt><trkpt lat="35.4374686" lon="139.1622332"><ele>1008.5533333333333</ele><time>2025-11-29T23:32:17Z</time></trkpt><trkpt lat="35.4372814" lon="139.1622939"><ele>1001.1366666666667</ele><time>2025-11-29T23:32:56Z</time></trkpt><trkpt lat="35.4371019" lon="139.1623567"><ele>992.1166666666667</ele><time>2025-11-29T23:34:29Z</time></trkpt><trkpt lat="35.4369305" lon="139.1622641"><ele>981.9866666666667</ele><time>2025-11-29T23:35:16Z</time></trkpt><trkpt lat="35.4367448" lon="139.1623528"><ele>973.2933333333334</ele><time>2025-11-29T23:35:31Z</time></trkpt><trkpt lat="35.4365519" lon="139.1623856"><ele>967.7533333333334</ele><time>2025-11-29T23:35:51Z</time></trkpt><trkpt lat="35.436374" lon="139.1623021"><ele>963.0300000000001</ele><time>2025-11-29T23:36:27Z</time></trkpt><trkpt lat="35.4362259" lon="139.1621558"><ele>957.2633333333333</ele><time>2025-11-29T23:36:53Z</time></trkpt><trkpt lat="35.4362096" lon="139.1623819"><ele>953.07</ele><time>2025-11-29T23:37:11Z</time></trkpt><trkpt lat="35.436307" lon="139.1625996"><ele>950.1300000000001</ele><time>2025-11-29T23:37:29Z</time></trkpt><trkpt lat="35.4363631" lon="139.1628202"><ele>948.0966666666668</ele><time>2025-11-29T23:37:47Z</time></trkpt><trkpt lat="35.4362126" lon="139.1629511"><ele>943.0300000000001</ele><time>2025-11-29T23:38:07Z</time></trkpt><trkpt lat="35.4360122" lon="139.16307"><ele>936.8966666666666</ele><time>2025-11-29T23:38:24Z</time></trkpt><trkpt lat="35.4358327" lon="139.1631177"><ele>930.1633333333333</ele><time>2025-11-29T23:38:42Z</time></trkpt><trkpt lat="35.435825" lon="139.1633384"><ele>925.9933333333333</ele><time>2025-11-29T23:39:03Z</time></trkpt><trkpt lat="35.4357025" lon="139.1635175"><ele>921.3966666666666</ele><time>2025-11-29T23:39:15Z</time></trkpt><trkpt lat="35.4354962" lon="139.1635299"><ele>917.8100000000001</ele><time>2025-11-29T23:39:29Z</time></trkpt><trkpt lat="35.4352939" lon="139.163571"><ele>914.3466666666667</ele><time>2025-11-29T23:39:44Z</time></trkpt><trkpt lat="35.4350804" lon="139.1635515"><ele>912.1666666666666</ele><time>2025-11-29T23:39:58Z</time></trkpt><trkpt lat="35.4348754" lon="139.1635176"><ele>912.91</ele><time>2025-11-29T23:40:13Z</time></trkpt><trkpt lat="35.4346789" lon="139.1635871"><ele>915.16</ele><time>2025-11-29T23:40:31Z</time></trkpt><trkpt lat="35.4345278" lon="139.1637411"><ele>918.41</ele><time>2025-11-29T23:40:49Z</time></trkpt><trkpt lat="35.4343489" lon="139.1637001"><ele>921.12</ele><time>2025-11-29T23:41:07Z</time></trkpt><trkpt lat="35.4341661" lon="139.1636328"><ele>922.5166666666668</ele><time>2025-11-29T23:41:27Z</time></trkpt><trkpt lat="35.4339744" lon="139.1636561"><ele>923.8033333333333</ele><time>2025-11-29T23:41:42Z</time></trkpt><trkpt lat="35.4337745" lon="139.1636696"><ele>925.0866666666667</ele><time>2025-11-29T23:41:57Z</time></trkpt><trkpt lat="35.4335643" lon="139.163682"><ele>926.2733333333334</ele><time>2025-11-29T23:42:11Z</time></trkpt><trkpt lat="35.433356" lon="139.1637666"><ele>928.6866666666668</ele><time>2025-11-29T23:42:29Z</time></trkpt><trkpt lat="35.4331794" lon="139.163857"><ele>932.5866666666667</ele><time>2025-11-29T23:42:47Z</time></trkpt><trkpt lat="35.4330308" lon="139.164023"><ele>936.2966666666667</ele><time>2025-11-29T23:43:04Z</time></trkpt><trkpt lat="35.4328549" lon="139.1640758"><ele>939.2966666666667</ele><time>2025-11-29T23:43:16Z</time></trkpt><trkpt lat="35.4326465" lon="139.1640259"><ele>940.2933333333334</ele><time>2025-11-29T23:43:30Z</time></trkpt><trkpt lat="35.4324468" lon="139.1639312"><ele>940.1666666666666</ele><time>2025-11-29T23:43:45Z</time></trkpt><trkpt lat="35.432251" lon="139.1638221"><ele>938.25</ele><time>2025-11-29T23:44:00Z</time></trkpt><trkpt lat="35.4320435" lon="139.163731"><ele>936.1033333333335</ele><time>2025-11-29T23:44:14Z</time></trkpt><trkpt lat="35.4318231" lon="139.1637246"><ele>934.5633333333335</ele><time>2025-11-29T23:44:28Z</time></trkpt><trkpt lat="35.4316015" lon="139.163729"><ele>933.88</ele><time>2025-11-29T23:44:43Z</time></trkpt><trkpt lat="35.4313879" lon="139.1637222"><ele>933.3133333333334</ele><time>2025-11-29T23:44:57Z</time></trkpt><trkpt lat="35.431173" lon="139.1637389"><ele>932.3299999999999</ele><time>2025-11-29T23:45:11Z</time></trkpt><trkpt lat="35.4309794" lon="139.1638169"><ele>931.4333333333334</ele><time>2025-11-29T23:45:26Z</time></trkpt><trkpt lat="35.4307595" lon="139.1639109"><ele>929.6866666666666</ele><time>2025-11-29T23:45:56Z</time></trkpt><trkpt lat="35.430631" lon="139.1640749"><ele>927.4633333333333</ele><time>2025-11-29T23:46:08Z</time></trkpt><trkpt lat="35.4304633" lon="139.1642221"><ele>924.91</ele><time>2025-11-29T23:46:19Z</time></trkpt><trkpt lat="35.4303069" lon="139.1643818"><ele>922.64</ele><time>2025-11-29T23:46:33Z</time></trkpt><trkpt lat="35.430134" lon="139.1644801"><ele>920.6066666666667</ele><time>2025-11-29T23:46:48Z</time></trkpt><trkpt lat="35.4299666" lon="139.1646123"><ele>918.2600000000001</ele><time>2025-11-29T23:47:03Z</time></trkpt><trkpt lat="35.429781" lon="139.1647166"><ele>916.1866666666666</ele><time>2025-11-29T23:47:17Z</time></trkpt><trkpt lat="35.4296011" lon="139.1648149"><ele>914.0</ele><time>2025-11-29T23:47:32Z</time></trkpt><trkpt lat="35.4294247" lon="139.1649693"><ele>911.7066666666666</ele><time>2025-11-29T23:47:47Z</time></trkpt><trkpt lat="35.4292352" lon="139.165057"><ele>908.2800000000001</ele><time>2025-11-29T23:48:04Z</time></trkpt><trkpt lat="35.4290362" lon="139.1651549"><ele>905.1700000000001</ele><time>2025-11-29T23:48:21Z</time></trkpt><trkpt lat="35.4288957" lon="139.1652965"><ele>902.4566666666666</ele><time>2025-11-29T23:48:33Z</time></trkpt><trkpt lat="35.4287167" lon="139.1654193"><ele>900.6933333333333</ele><time>2025-11-29T23:48:50Z</time></trkpt><trkpt lat="35.4285948" lon="139.165582"><ele>897.68</ele><time>2025-11-29T23:49:04Z</time></trkpt><trkpt lat="35.428489" lon="139.1657757"><ele>894.2066666666666</ele><time>2025-11-29T23:49:22Z</time></trkpt><trkpt lat="35.4283384" lon="139.1659372"><ele>889.0133333333333</ele><time>2025-11-29T23:49:46Z</time></trkpt><trkpt lat="35.4282008" lon="139.166108"><ele>883.6066666666667</ele><time>2025-11-29T23:50:13Z</time></trkpt><trkpt lat="35.4281051" lon="139.1663025"><ele>877.0366666666667</ele><time>2025-11-29T23:50:39Z</time></trkpt><trkpt lat="35.4279671" lon="139.166491"><ele>868.02</ele><time>2025-11-29T23:51:09Z</time></trkpt><trkpt lat="35.4278915" lon="139.1666994"><ele>857.8766666666667</ele><time>2025-11-29T23:51:32Z</time></trkpt><trkpt lat="35.4276925" lon="139.1667028"><ele>848.71</ele><time>2025-11-29T23:51:53Z</time></trkpt><trkpt lat="35.4274831" lon="139.1666704"><ele>841.8033333333333</ele><time>2025-11-29T23:52:14Z</time></trkpt><trkpt lat="35.4273044" lon="139.1667087"><ele>836.0366666666667</ele><time>2025-11-29T23:52:32Z</time></trkpt><trkpt lat="35.427108" lon="139.1667285"><ele>830.6133333333333</ele><time>2025-11-29T23:52:50Z</time></trkpt><trkpt lat="35.426934" lon="139.1668261"><ele>823.4833333333332</ele><time>2025-11-29T23:53:08Z</time></trkpt><trkpt lat="35.4267535" lon="139.1668451"><ele>816.6266666666667</ele><time>2025-11-29T23:53:22Z</time></trkpt><trkpt lat="35.4265712" lon="139.1667586"><ele>809.9500000000002</ele><time>2025-11-29T23:53:40Z</time></trkpt><trkpt lat="35.426376" lon="139.1668249"><ele>805.8966666666666</ele><time>2025-11-29T23:53:55Z</time></trkpt><trkpt lat="35.4261887" lon="139.1667862"><ele>803.1666666666666</ele><time>2025-11-29T23:54:30Z</time></trkpt><trkpt lat="35.4259787" lon="139.1667634"><ele>800.1966666666667</ele><time>2025-11-29T23:54:45Z</time></trkpt><trkpt lat="35.4257737" lon="139.1666798"><ele>798.6333333333333</ele><time>2025-11-29T23:55:00Z</time></trkpt><trkpt lat="35.4256144" lon="139.1665573"><ele>798.2033333333334</ele><time>2025-11-29T23:55:14Z</time></trkpt><trkpt lat="35.4254049" lon="139.166486"><ele>798.2533333333334</ele><time>2025-11-29T23:55:29Z</time></trkpt><trkpt lat="35.425229" lon="139.1664064"><ele>798.2933333333334</ele><time>2025-11-29T23:55:44Z</time></trkpt><trkpt lat="35.4250711" lon="139.1662899"><ele>796.8299999999999</ele><time>2025-11-29T23:55:58Z</time></trkpt><trkpt lat="35.4248694" lon="139.166208"><ele>795.0166666666668</ele><time>2025-11-29T23:56:13Z</time></trkpt><trkpt lat="35.424675" lon="139.1661052"><ele>792.0300000000001</ele><time>2025-11-29T23:56:27Z</time></trkpt><trkpt lat="35.4244763" lon="139.1660066"><ele>789.0433333333334</ele><time>2025-11-29T23:56:41Z</time></trkpt><trkpt lat="35.4242858" lon="139.1658833"><ele>786.6600000000002</ele><time>2025-11-29T23:56:56Z</time></trkpt><trkpt lat="35.4241502" lon="139.1657341"><ele>784.64</ele><time>2025-11-29T23:57:07Z</time></trkpt><trkpt lat="35.4239897" lon="139.1655941"><ele>782.2766666666666</ele><time>2025-11-29T23:57:22Z</time></trkpt><trkpt lat="35.4237887" lon="139.1654972"><ele>779.4766666666668</ele><time>2025-11-29T23:57:36Z</time></trkpt><trkpt lat="35.4236253" lon="139.1653549"><ele>775.93</ele><time>2025-11-29T23:57:54Z</time></trkpt><trkpt lat="35.4234425" lon="139.165252"><ele>772.07</ele><time>2025-11-29T23:58:12Z</time></trkpt><trkpt lat="35.4232553" lon="139.1652659"><ele>767.8466666666667</ele><time>2025-11-29T23:58:27Z</time></trkpt><trkpt lat="35.4231441" lon="139.16507"><ele>763.8966666666666</ele><time>2025-11-29T23:58:39Z</time></trkpt><trkpt lat="35.423022" lon="139.1648945"><ele>759.1466666666666</ele><time>2025-11-29T23:59:05Z</time></trkpt><trkpt lat="35.4229128" lon="139.164717"><ele>753.7366666666667</ele><time>2025-11-29T23:59:28Z</time></trkpt><trkpt lat="35.4228051" lon="139.1644955"><ele>746.9433333333333</ele><time>2025-11-29T23:59:46Z</time></trkpt><trkpt lat="35.4226544" lon="139.1643613"><ele>740.4900000000001</ele><time>2025-11-30T00:00:09Z</time></trkpt><trkpt lat="35.422494" lon="139.1642393"><ele>733.5966666666667</ele><time>2025-11-30T00:00:36Z</time></trkpt><trkpt lat="35.4224024" lon="139.1640284"><ele>727.6300000000001</ele><time>2025-11-30T00:00:56Z</time></trkpt><trkpt lat="35.422293" lon="139.1638254"><ele>722.21</ele><time>2025-11-30T00:01:20Z</time></trkpt><trkpt lat="35.4221915" lon="139.1636201"><ele>717.2566666666667</ele><time>2025-11-30T00:01:35Z</time></trkpt><trkpt lat="35.4220444" lon="139.1634779"><ele>712.9</ele><time>2025-11-30T00:01:52Z</time></trkpt><trkpt lat="35.4218901" lon="139.1633284"><ele>707.8433333333332</ele><time>2025-11-30T00:02:10Z</time></trkpt><trkpt lat="35.4217157" lon="139.1631959"><ele>702.27</ele><time>2025-11-30T00:02:30Z</time></trkpt><trkpt lat="35.4215423" lon="139.1630701"><ele>696.8133333333334</ele><time>2025-11-30T00:02:50Z</time></trkpt><trkpt lat="35.4213735" lon="139.1629429"><ele>691.6866666666666</ele><time>2025-11-30T00:03:08Z</time></trkpt><trkpt lat="35.4212138" lon="139.1627717"><ele>686.2533333333334</ele><time>2025-11-30T00:03:23Z</time></trkpt><trkpt lat="35.4211029" lon="139.1625664"><ele>680.6233333333333</ele><time>2025-11-30T00:03:43Z</time></trkpt><trkpt lat="35.4209097" lon="139.1624699"><ele>674.5833333333334</ele><time>2025-11-30T00:04:12Z</time></trkpt><trkpt lat="35.42077" lon="139.1623163"><ele>667.5633333333333</ele><time>2025-11-30T00:04:39Z</time></trkpt><trkpt lat="35.4205804" lon="139.1623925"><ele>659.1466666666666</ele><time>2025-11-30T00:05:00Z</time></trkpt><trkpt lat="35.4203644" lon="139.162341"><ele>648.1533333333333</ele><time>2025-11-30T00:05:15Z</time></trkpt><trkpt lat="35.4201661" lon="139.1623143"><ele>637.29</ele><time>2025-11-30T00:05:38Z</time></trkpt><trkpt lat="35.4200166" lon="139.1621681"><ele>626.6633333333333</ele><time>2025-11-30T00:06:13Z</time></trkpt><trkpt lat="35.419831" lon="139.1621595"><ele>618.9</ele><time>2025-11-30T00:06:48Z</time></trkpt><trkpt lat="35.4197064" lon="139.1619966"><ele>614.4366666666666</ele><time>2025-11-30T00:07:06Z</time></trkpt><trkpt lat="35.4194963" lon="139.1619609"><ele>610.6999999999999</ele><time>2025-11-30T00:07:23Z</time></trkpt><trkpt lat="35.4192937" lon="139.1620367"><ele>607.34</ele><time>2025-11-30T00:07:41Z</time></trkpt><trkpt lat="35.4191097" lon="139.1620714"><ele>604.15</ele><time>2025-11-30T00:07:55Z</time></trkpt><trkpt lat="35.4189041" lon="139.1621601"><ele>602.4266666666666</ele><time>2025-11-30T00:08:09Z</time></trkpt><trkpt lat="35.4187012" lon="139.1621631"><ele>601.9666666666666</ele><time>2025-11-30T00:08:24Z</time></trkpt><trkpt lat="35.4185037" lon="139.1621403"><ele>601.3933333333333</ele><time>2025-11-30T00:08:38Z</time></trkpt><trkpt lat="35.4183099" lon="139.1622475"><ele>600.32</ele><time>2025-11-30T00:08:56Z</time></trkpt><trkpt lat="35.4181279" lon="139.1622247"><ele>599.1766666666667</ele><time>2025-11-30T00:09:11Z</time></trkpt><trkpt lat="35.4179372" lon="139.1623014"><ele>596.1966666666667</ele><time>2025-11-30T00:09:26Z</time></trkpt><trkpt lat="35.4177563" lon="139.1623123"><ele>594.1700000000001</ele><time>2025-11-30T00:09:40Z</time></trkpt><trkpt lat="35.4175547" lon="139.1623414"><ele>592.13</ele><time>2025-11-30T00:09:55Z</time></trkpt><trkpt lat="35.4173421" lon="139.162333"><ele>591.57</ele><time>2025-11-30T00:10:09Z</time></trkpt><trkpt lat="35.4171954" lon="139.1624861"><ele>588.3733333333333</ele><time>2025-11-30T00:10:23Z</time></trkpt><trkpt lat="35.4170532" lon="139.1626247"><ele>582.61</ele><time>2025-11-30T00:10:41Z</time></trkpt><trkpt lat="35.4168887" lon="139.1625141"><ele>579.14</ele><time>2025-11-30T00:10:56Z</time></trkpt><trkpt lat="35.416708" lon="139.1625117"><ele>575.8000000000001</ele><time>2025-11-30T00:11:11Z</time></trkpt><trkpt lat="35.4165112" lon="139.1625435"><ele>571.5500000000001</ele><time>2025-11-30T00:11:28Z</time></trkpt><trkpt lat="35.4163065" lon="139.1625903"><ele>563.5866666666667</ele><time>2025-11-30T00:11:54Z</time></trkpt><trkpt lat="35.4161094" lon="139.1625433"><ele>556.35</ele><time>2025-11-30T00:12:21Z</time></trkpt><trkpt lat="35.4159504" lon="139.1626731"><ele>551.8866666666668</ele><time>2025-11-30T00:12:43Z</time></trkpt><trkpt lat="35.4158151" lon="139.1628464"><ele>546.5866666666667</ele><time>2025-11-30T00:13:03Z</time></trkpt><trkpt lat="35.4156209" lon="139.1628639"><ele>542.4133333333333</ele><time>2025-11-30T00:13:24Z</time></trkpt><trkpt lat="35.415427" lon="139.1628087"><ele>538.2633333333333</ele><time>2025-11-30T00:13:41Z</time></trkpt><trkpt lat="35.4153014" lon="139.1626428"><ele>535.3133333333334</ele><time>2025-11-30T00:14:31Z</time></trkpt><trkpt lat="35.4152122" lon="139.1624062"><ele>528.2633333333333</ele><time>2025-11-30T00:14:49Z</time></trkpt><trkpt lat="35.4151424" lon="139.162179"><ele>521.3433333333334</ele><time>2025-11-30T00:15:06Z</time></trkpt><trkpt lat="35.4149887" lon="139.1620194"><ele>514.37</ele><time>2025-11-30T00:15:23Z</time></trkpt><trkpt lat="35.4150703" lon="139.1622295"><ele>511.5233333333333</ele><time>2025-11-30T00:16:14Z</time></trkpt><trkpt lat="35.4149956" lon="139.1624608"><ele>507.23</ele><time>2025-11-30T00:16:28Z</time></trkpt><trkpt lat="35.4148338" lon="139.1623199"><ele>502.83666666666664</ele><time>2025-11-30T00:16:54Z</time></trkpt><trkpt lat="35.4146663" lon="139.1622189"><ele>498.07666666666665</ele><time>2025-11-30T00:17:15Z</time></trkpt><trkpt lat="35.4144625" lon="139.1622047"><ele>492.9866666666667</ele><time>2025-11-30T00:17:36Z</time></trkpt><trkpt lat="35.4142637" lon="139.1622899"><ele>486.84999999999997</ele><time>2025-11-30T00:17:59Z</time></trkpt><trkpt lat="35.4140662" lon="139.1622995"><ele>481.02</ele><time>2025-11-30T00:18:17Z</time></trkpt><trkpt lat="35.4138646" lon="139.1623663"><ele>476.3866666666667</ele><time>2025-11-30T00:18:41Z</time></trkpt><trkpt lat="35.4136729" lon="139.1624522"><ele>473.14000000000004</ele><time>2025-11-30T00:18:59Z</time></trkpt><trkpt lat="35.4135115" lon="139.1622935"><ele>470.22</ele><time>2025-11-30T00:19:20Z</time></trkpt><trkpt lat="35.4133983" lon="139.1620756"><ele>468.08</ele><time>2025-11-30T00:19:41Z</time></trkpt><trkpt lat="35.4132735" lon="139.1619019"><ele>465.78000000000003</ele><time>2025-11-30T00:19:59Z</time></trkpt><trkpt lat="35.4131015" lon="139.1617857"><ele>462.3766666666667</ele><time>2025-11-30T00:20:17Z</time></trkpt><trkpt lat="35.412963" lon="139.1616233"><ele>460.45</ele><time>2025-11-30T00:20:31Z</time></trkpt><trkpt lat="35.4127871" lon="139.161714"><ele>457.7633333333333</ele><time>2025-11-30T00:20:49Z</time></trkpt><trkpt lat="35.4126378" lon="139.1618564"><ele>453.3433333333333</ele><time>2025-11-30T00:21:12Z</time></trkpt><trkpt lat="35.4124605" lon="139.1619612"><ele>447.56</ele><time>2025-11-30T00:21:26Z</time></trkpt><trkpt lat="35.412268" lon="139.1621053"><ele>443.1933333333333</ele><time>2025-11-30T00:21:41Z</time></trkpt><trkpt lat="35.412079" lon="139.1620857"><ele>443.2133333333333</ele><time>2025-11-30T00:21:58Z</time></trkpt><trkpt lat="35.4119372" lon="139.1619318"><ele>443.95666666666665</ele><time>2025-11-30T00:22:13Z</time></trkpt><trkpt lat="35.4117923" lon="139.1617807"><ele>446.2033333333334</ele><time>2025-11-30T00:22:24Z</time></trkpt><trkpt lat="35.4116074" lon="139.1617449"><ele>445.4533333333334</ele><time>2025-11-30T00:22:39Z</time></trkpt><trkpt lat="35.4114817" lon="139.1619385"><ele>440.08</ele><time>2025-11-30T00:22:57Z</time></trkpt><trkpt lat="35.4113344" lon="139.1620967"><ele>432.84</ele><time>2025-11-30T00:23:17Z</time></trkpt><trkpt lat="35.4111453" lon="139.1622036"><ele>425.5</ele><time>2025-11-30T00:23:29Z</time></trkpt><trkpt lat="35.4109916" lon="139.1623325"><ele>421.1266666666667</ele><time>2025-11-30T00:23:40Z</time></trkpt><trkpt lat="35.4108937" lon="139.1625392"><ele>414.81666666666666</ele><time>2025-11-30T00:23:52Z</time></trkpt><trkpt lat="35.4107886" lon="139.162722"><ele>408.60666666666674</ele><time>2025-11-30T00:24:10Z</time></trkpt><trkpt lat="35.4106413" lon="139.1628548"><ele>402.7266666666667</ele><time>2025-11-30T00:24:21Z</time></trkpt><trkpt lat="35.4104971" lon="139.1630235"><ele>398.31</ele><time>2025-11-30T00:24:36Z</time></trkpt><trkpt lat="35.4103592" lon="139.1632477"><ele>394.02</ele><time>2025-11-30T00:24:48Z</time></trkpt><trkpt lat="35.4101986" lon="139.1633898"><ele>390.12000000000006</ele><time>2025-11-30T00:25:03Z</time></trkpt><trkpt lat="35.4100699" lon="139.1636313"><ele>386.41333333333336</ele><time>2025-11-30T00:25:14Z</time></trkpt><trkpt lat="35.4098558" lon="139.1637255"><ele>383.07666666666665</ele><time>2025-11-30T00:25:26Z</time></trkpt><trkpt lat="35.409672" lon="139.1637328"><ele>379.35666666666674</ele><time>2025-11-30T00:25:37Z</time></trkpt><trkpt lat="35.4094711" lon="139.1636749"><ele>377.46000000000004</ele><time>2025-11-30T00:25:52Z</time></trkpt><trkpt lat="35.4092898" lon="139.1636"><ele>376.25</ele><time>2025-11-30T00:26:03Z</time></trkpt><trkpt lat="35.4090874" lon="139.1635556"><ele>374.20666666666665</ele><time>2025-11-30T00:26:15Z</time></trkpt><trkpt lat="35.4089038" lon="139.1637258"><ele>369.5933333333333</ele><time>2025-11-30T00:26:26Z</time></trkpt><trkpt lat="35.4088321" lon="139.1639435"><ele>365.18333333333334</ele><time>2025-11-30T00:26:38Z</time></trkpt><trkpt lat="35.4087211" lon="139.1641591"><ele>361.56333333333333</ele><time>2025-11-30T00:26:52Z</time></trkpt><trkpt lat="35.4086373" lon="139.164355"><ele>358.09666666666664</ele><time>2025-11-30T00:27:03Z</time></trkpt><trkpt lat="35.4085593" lon="139.1645858"><ele>353.8866666666666</ele><time>2025-11-30T00:27:15Z</time></trkpt><trkpt lat="35.4083891" lon="139.1647203"><ele>349.7666666666667</ele><time>2025-11-30T00:27:30Z</time></trkpt><trkpt lat="35.4081951" lon="139.164782"><ele>347.02666666666664</ele><time>2025-11-30T00:27:44Z</time></trkpt><trkpt lat="35.40798" lon="139.1648173"><ele>345.10666666666674</ele><time>2025-11-30T00:27:59Z</time></trkpt><trkpt lat="35.4077866" lon="139.1649251"><ele>342.9866666666667</ele><time>2025-11-30T00:28:13Z</time></trkpt><trkpt lat="35.4076002" lon="139.1650077"><ele>340.46666666666664</ele><time>2025-11-30T00:28:28Z</time></trkpt><trkpt lat="35.407436" lon="139.1651252"><ele>336.6433333333333</ele><time>2025-11-30T00:28:40Z</time></trkpt><trkpt lat="35.4072609" lon="139.1652055"><ele>333.06333333333333</ele><time>2025-11-30T00:28:51Z</time></trkpt><trkpt lat="35.4070963" lon="139.1653006"><ele>329.7066666666667</ele><time>2025-11-30T00:29:03Z</time></trkpt><trkpt lat="35.406926" lon="139.1654448"><ele>327.18333333333334</ele><time>2025-11-30T00:29:15Z</time></trkpt><trkpt lat="35.4067703" lon="139.1655623"><ele>324.4433333333333</ele><time>2025-11-30T00:29:26Z</time></trkpt><trkpt lat="35.4066239" lon="139.1657564"><ele>322.05</ele><time>2025-11-30T00:29:40Z</time></trkpt><trkpt lat="35.4064251" lon="139.1658268"><ele>320.44666666666666</ele><time>2025-11-30T00:29:55Z</time></trkpt><trkpt lat="35.4062284" lon="139.1658237"><ele>320.0933333333333</ele><time>2025-11-30T00:30:10Z</time></trkpt><trkpt lat="35.4060563" lon="139.1658954"><ele>318.55</ele><time>2025-11-30T00:30:22Z</time></trkpt><trkpt lat="35.4059128" lon="139.1660689"><ele>315.24</ele><time>2025-11-30T00:30:36Z</time></trkpt><trkpt lat="35.4058278" lon="139.1663127"><ele>310.69</ele><time>2025-11-30T00:30:51Z</time></trkpt><trkpt lat="35.4058447" lon="139.1665867"><ele>306.9566666666667</ele><time>2025-11-30T00:31:05Z</time></trkpt><trkpt lat="35.4059282" lon="139.1668131"><ele>304.49666666666667</ele><time>2025-11-30T00:31:20Z</time></trkpt><trkpt lat="35.406024" lon="139.167044"><ele>302.3933333333334</ele><time>2025-11-30T00:31:34Z</time></trkpt><trkpt lat="35.4060625" lon="139.1673075"><ele>299.3933333333334</ele><time>2025-11-30T00:31:49Z</time></trkpt><trkpt lat="35.4060294" lon="139.1675398"><ele>295.93666666666667</ele><time>2025-11-30T00:32:04Z</time></trkpt><trkpt lat="35.4059548" lon="139.1677833"><ele>293.17333333333335</ele><time>2025-11-30T00:32:18Z</time></trkpt><trkpt lat="35.4058215" lon="139.167985"><ele>292.3666666666666</ele><time>2025-11-30T00:32:32Z</time></trkpt><trkpt lat="35.4056504" lon="139.1681054"><ele>292.92</ele><time>2025-11-30T00:32:44Z</time></trkpt><trkpt lat="35.4054724" lon="139.168198"><ele>293.23333333333335</ele><time>2025-11-30T00:32:58Z</time></trkpt><trkpt lat="35.4052984" lon="139.1682967"><ele>292.8566666666667</ele><time>2025-11-30T00:33:10Z</time></trkpt><trkpt lat="35.4050879" lon="139.1683803"><ele>291.46999999999997</ele><time>2025-11-30T00:33:25Z</time></trkpt></trkseg></trk></gpx>